ONEWEB-0086             
1 45456U 20020AJ  23316.46899991  .00001363  00000+0  38085-2 0  9996
2 45456  87.9002 209.3532 0001727  56.5604 303.5689 13.11416400178392
ONEWEB-0088             
1 45457U 20020AK  23316.44625539 -.00000029  00000+0 -11727-3 0  9995
2 45457  87.8995 209.3371 0001745  69.8062 290.3254 13.11419459178320
ONEWEB-0102             
1 47258U 20100A   23316.58265163 -.00000307  00000+0 -88788-3 0  9993
2 47258  87.9034 179.1326 0001436  88.2169 271.9124 13.12441604140430
ONEWEB-0109             
1 47259U 20100B   23316.59324291 -.00000343  00000+0 -98752-3 0  9995
2 47259  87.9028 179.0970 0001542  80.1735 279.9567 13.12444245140260
ONEWEB-0110             
1 47260U 20100C   23316.38783493  .00000417  00000+0  11233-2 0  9995
2 47260  87.9029 179.1522 0001336  80.7647 279.3633 13.12443327140400
ONEWEB-0111             
1 47261U 20100D   23316.57208792 -.00000366  00000+0 -10537-2 0  9992
2 47261  87.9028 179.1034 0001376  81.1390 278.9895 13.12440922140269
ONEWEB-0114             
1 47262U 20100E   23316.37514525  .00000416  00000+0  11203-2 0  9990
2 47262  87.9029 179.1651 0001542 101.0848 259.0454 13.12443404140192
ONEWEB-0117             
1 47263U 20100F   23316.59537174  .00000025  00000+0  35277-4 0  9995
2 47263  87.8967 179.1037 0001536  78.3541 281.7759 13.12443960140232
